PROBA-1                 
1 26958U 01049B   16043.55144413  .00000559  00000-0  54083-4 0  9998
2 26958  97.4989  24.0453 0074179 172.1323 188.1091 14.94577316778224
BIRD 2                  
1 26959U 01049C   16043.48803882  .00007829  00000-0  26019-3 0  9997
2 26959  97.7609 319.9158 0009309 324.5310  35.5310 15.31453136791147
CUTE-1 (CO-55)          
1 27844U 03031E   16042.86372947  .00000182  00000-0  10226-3 0  9996
2 27844  98.6948  52.9555 0009151 334.0217  26.0500 14.21912426654491
CUBESAT XI-IV (CO-57)   
1 27848U 03031J   16042.80342753  .00000150  00000-0  88467-4 0  9994
2 27848  98.7044  52.9260 0009223 342.7523  17.3340 14.21543746654380
GENESIS 1               
1 29252U 06029A   16043.53579949  .00003601  00000-0  19533-3 0  9996
2 29252  64.5063  86.7427 0042023 240.4505 202.4664 15.15575049527449
FALCONSAT-3             
1 30776U 07006E   16043.14019452  .00011699  00000-0  41920-3 0  9991
2 30776  35.4331 293.0800 0002050 272.4536  87.5953 15.27987917492987
GENESIS 2               
1 31789U 07028A   16043.52415212  .00003587  00000-0  19664-3 0  9993
2 31789  64.5060 123.0111 0051835 283.4244  76.1103 15.14824329474540
APRIZESAT 4             
1 35684U 09041D   16043.19750731  .00000504  00000-0  74960-4 0  9996
2 35684  98.0875 335.7458 0046290 238.5024 227.7532 14.78812784352564
APRIZESAT 3             
1 35686U 09041F   16042.84924449  .00000625  00000-0  73701-4 0  9994
2 35686  98.2315  17.0210 0073890 169.3430 190.9372 14.86748179354178
PROBA-2                 
1 36037U 09059B   16043.13862923  .00000128  00000-0  41898-4 0  9995
2 36037  98.2668 237.9212 0014174  51.4974 308.7491 14.52925941332825
APRIZESAT 5             
1 37792U 11044E   16043.38126089  .00000789  00000-0  12266-3 0  9993
2 37792  98.2690 167.9108 0058921 173.1701 187.0324 14.74883773241511
APRIZESAT 6             
1 37793U 11044F   16043.53959582  .00000644  00000-0  10936-3 0  9995
2 37793  98.2351 158.3023 0047122 190.5121 229.5440 14.71989058241089
TET-1                   
1 38710U 12039D   16043.44343910  .00012738  00000-0  31937-3 0  9993
2 38710  97.4931 338.1878 0002551 133.9960 226.1497 15.40179046198574
STSAT-2C                
1 39068U 13003A   16043.46820802  .00049523 -14277-7  63049-3 0  9994
2 39068  80.2356   7.2920 0486979 204.2118 153.5507 14.82441875158995
CUSAT 1                 
1 39266U 13055B   16043.38873797  .00020954  00000-0  62020-3 0  9999
2 39266  80.9925 158.0659 0690699 217.9465 137.1100 14.22172277122045
STPSAT-3                
1 39380U 13064A   16043.40620593  .00009349  00000-0  30785-3 0  9991
2 39380  40.5017 158.3164 0003688 134.5863 225.5251 15.31413134124437
APRIZESAT 7             
1 39416U 13066A   16042.82778780  .00000519  00000-0  68541-4 0  9992
2 39416  97.7040 106.2393 0042868  66.7875 293.7845 14.83461828120379
APRIZESAT 8             
1 39425U 13066K   16043.11835949  .00000420  00000-0  59901-4 0  9997
2 39425  97.6991 102.9887 0053662  72.1933 288.5125 14.80741458120228
BUGSAT-1 (TITA)         
1 40014U 14033E   16043.53394922  .00001706  00000-0  16372-3 0  9997
2 40014  97.9575 315.9476 0032755 149.3341 210.9761 14.94094068 89924
SAUDISAT 4              
1 40016U 14033G   16043.52015430  .00000356  00000-0  59519-4 0  9993
2 40016  97.9217 297.2169 0049894  68.1888 292.4618 14.74958631 88834
TABLETSAT-AURORA        
1 40017U 14033H   16043.44465016  .00001967  00000-0  19842-3 0  9997
2 40017  97.9530 313.6355 0024509 145.8612 214.4211 14.92073131 89788
APRIZESAT 9             
1 40018U 14033J   16043.50140651  .00000272  00000-0  52131-4 0  9997
2 40018  97.9121 291.8626 0073129  78.1995 282.7402 14.69658146 88415
APRIZESAT 10            
1 40019U 14033K   16043.25505839  .00000229  00000-0  47431-4 0  9992
2 40019  97.9072 288.7362 0085980  85.6792 275.4231 14.66741671 88253
AISAT                   
1 40054U 14034B   16043.44272570  .00002262  00000-0  33375-3 0  9996
2 40054  98.1990 129.8678 0013638 172.5281 187.6133 14.76258041 87292
CANX-4                  
1 40055U 14034C   16043.47159960  .00000607  00000-0  99485-4 0  9993
2 40055  98.2002 129.1978 0014351 183.1147 176.9974 14.74349817 87234
CANX-5                  
1 40056U 14034D   16043.47169467  .00000617  00000-0  10096-3 0  9998
2 40056  98.2002 129.1970 0014367 183.3889 176.7224 14.74350311 87236
TDS 1                   
1 40076U 14037H   16043.54987718  .00000415  00000-0  60821-4 0  9996
2 40076  98.3297 129.7199 0005398 198.4302 161.6723 14.81125344 86392
TIANTUO 2               
1 40144U 14053B   16043.49406431  .00003781  00000-0  12637-3 0  9992
2 40144  97.3623 123.7860 0011260 214.2396 202.5740 15.31567816 79840
